GONETS-M 23             
1 54150U 22139A   25080.13991118  .00000023  00000+0  93161-4 0  9998
2 54150  82.5002 269.7993 0021857 129.2465 231.0559 12.42887159109362
GONETS-M 24             
1 54151U 22139B   25080.19394289  .00000040  00000+0  21606-3 0  9994
2 54151  82.4920 269.1348 0016849 139.1548 221.0798 12.42890122109375
GONETS-M 25             
1 54152U 22139C   25080.18018102  .00000030  00000+0  14653-3 0  9994
2 54152  82.4985 269.5874 0020640 137.8354 222.4318 12.42885301109375
SKIF-D                  
1 54153U 22139D   25079.17832509  .00000040  00000+0  00000+0 0  9995
2 54153  89.9772  96.7778 0008102 324.4260  35.5808  5.00435369 41399
MATS                    
1 54227U 22147A   25079.93304811  .00009233  00000+0  72068-3 0  9990
2 54227  97.6770  80.1772 0015659 295.4613  64.4991 15.01263589129666
JILIN-1 GAOFEN 03D54    
1 54254U 22155D   25080.20267614  .00046912  00000+0  13825-2 0  9990
2 54254  97.5743 200.3722 0008491 193.8234 166.2777 15.34846236129915
EOS-6 (OCEANSAT-3)      
1 54361U 22158A   25080.23628079  .00001334  00000+0  37852-3 0  9997
2 54361  98.3477 179.5377 0000553  82.1157 278.0099 14.47016883122333
ASTROCAST-0304          
1 54367U 22158G   25080.25132761  .00098646  00000+0  14848-2 0  9994
2 54367  97.4342 194.8261 0007584 165.8054 194.3414 15.54453443129466
ASTROCAST-0302          
1 54369U 22158J   25080.17607363  .00054821  00000+0  87873-3 0  9998
2 54369  97.4399 195.0951 0005989 152.3450 207.8122 15.52896812129462
ASTROCAST-0301          
1 54370U 22158K   25080.15681836  .00056103  00000+0  89762-3 0  9999
2 54370  97.4453 195.3494 0005046 170.7797 189.3550 15.52948491129462
DONGPO 09               
1 54685U 22167D   25080.23531835  .00022952  00000+0  95855-3 0  9995
2 54685  97.6450 231.6986 0003328 267.2293  92.8562 15.23641187126192
DONGPO 08               
1 54686U 22167E   25080.18191511  .00021303  00000+0  93069-3 0  9997
2 54686  97.6390 230.6055 0010454 321.3614  38.6872 15.22082781126155
2022-167F               
1 54687U 22167F   25080.21889791  .00042176  00000+0  11263-2 0  9992
2 54687  97.6087 232.8419 0005666 244.6866 115.3792 15.37969846126383
DONGPO 10               
1 54689U 22167H   25080.19730873  .00021167  00000+0  91180-3 0  9991
2 54689  97.6480 231.5625 0005450 265.5311  94.5302 15.22599886126163
JILIN-1 GAOFEN 03D48    
1 54695U 22167P   25080.22084254  .00022044  00000+0  94170-3 0  9994
2 54695  97.6414 231.0016 0007702 271.5337  88.5017 15.22861826126176
STAR VIBE               
1 55009U 23001A   25080.11669879  .00022322  00000+0  78915-3 0  9990
2 55009  97.3801 140.5417 0006097 302.5743  57.4907 15.29174805122691
BRO-8                   
1 55011U 23001C   25080.20807385  .00013580  00000+0  52610-3 0  9999
2 55011  97.3872 140.4830 0007857 308.4731  51.5802 15.26249322122656
CONNECTA T1.2           
1 55012U 23001D   25080.16029012  .00028822  00000+0  94001-3 0  9993
2 55012  97.3885 143.4076 0007288 288.9168  71.1283 15.31732038122838
BIRKELAND               
1 55015U 23001G   25080.21508400  .00014551  00000+0  49770-3 0  9992
2 55015  97.3907 143.6193 0006325 286.9369  73.1178 15.30344251122852
ION SCV-008             
1 55051U 23001AU  25079.75039956  .00014775  00000+0  66292-3 0  9990
2 55051  97.5851 165.6495 0018270 160.2395 199.9551 15.21147348122238
ION SCV-007             
1 55060U 23001BD  25080.18832207  .00001794  00000+0  26235-3 0  9999
2 55060  97.9587 145.7340 0012433   4.7568 355.3758 14.76872735119377
TAUSAT-2                
1 55073U 23001BS  25080.15225950  .02911523  24001-5  16533-2 0  9995
2 55073  97.3495 157.4458 0009944 263.4730  96.5427 16.19039643123779
FLOCK 4Y-23             
1 55080U 23001BZ  25079.76976348  .00095502  00000+0  14149-2 0  9998
2 55080  97.3818 151.0078 0008971 246.9178 113.1131 15.54887511123349
HUYGENS                 
1 55093U 23001CN  25080.14992294  .00015872  00000+0  54233-3 0  9995
2 55093  97.3839 143.2872 0010271 262.6365  97.3709 15.30325884122864
SHARJAHSAT-1            
1 55104U 23001CZ  25080.15212630  .00023689  00000+0  76654-3 0  9994
2 55104  97.3810 141.8946 0006963 298.2031  61.8507 15.32028511122771
2023-003A               
1 55133U 23003A   25080.23115049  .00059735  00000+0  12171-2 0  9997
2 55133  97.1807 153.5860 0004242 319.1367  40.9564 15.46032578122162
HORUS 1                 
1 55690U 23025A   25080.19296722  .00016173  00000+0  68327-3 0  9996
2 55690  97.3887 157.9455 0002597 177.0767 183.0486 15.23322431115084
HORUS 2                 
1 55844U 23032A   25080.16182877  .00017783  00000+0  74818-3 0  9997
2 55844  97.3949 158.3297 0006520 193.1639 166.9429 15.23427351112519
GLOBAL-19               
1 55982U 23041B   25079.55057467  .00033255  00000+0  86307-3 0  9995
2 55982  42.0029 328.5924 0004148 209.4867 150.5739 15.38334911112051
BRO-9                   
1 56185U 23054H   25080.15809922  .00029812  00000+0  65487-3 0  9994
2 56185  97.3319 340.9102 0003003 244.8679 115.2257 15.43974161108513
ION SCV-010             
1 56192U 23054Q   25079.69152313  .00012630  00000+0  56978-3 0  9999
2 56192  97.4343 330.1819 0016300 357.2868   2.8276 15.21025656107151
GHOST-1                 
1 56195U 23054T   25080.18274628  .00037096  00000+0  75716-3 0  9996
2 56195  97.3333 341.9711 0004358 233.0920 126.9930 15.46091573108573
GHOST-2                 
1 56197U 23054V   25079.70532376  .00054145  00000+0  86436-3 0  9996
2 56197  97.3333 343.6069 0004396 219.5865 140.5067 15.53022663108642
TOMORROW-R1             
1 56199U 23054X   25080.17065732  .00359444  00000+0  16039-2 0  9999
2 56199  97.3289 349.5965 0005885 146.4178 213.7465 15.83316941109063
FACSAT-2                
1 56205U 23054AD  25080.19583754  .00067360  00000+0  89691-3 0  9996
2 56205  97.3377 347.0452 0005233 200.7440 159.3604 15.57919031108885
CONNECTA T2.1           
1 56210U 23054AJ  25080.17261858  .00067167  00000+0  92892-3 0  9990
2 56210  97.3299 345.4359 0004818 205.7430 154.3586 15.56901210108821
TELEOS-2                
1 56310U 23057C   25076.79479904  .00016892  00000+0  13871-2 0  9998
2 56310   9.9888 287.2817 0001022 273.2462  86.7635 14.96438006104321
SNIPE 4                 
1 56744U 23072B   25080.17341301  .00026355  00000+0  10619-2 0  9994
2 56744  97.5462 272.4372 0010115 141.7633 218.4324 15.24777376100713
SNIPE 2                 
1 56745U 23072C   25080.17152243  .00029118  00000+0  11443-2 0  9996
2 56745  97.5587 273.5399 0008031 161.4586 198.6945 15.25610837100732
2023-072G               
1 56749U 23072G   25080.18929119  .00030746  00000+0  11207-2 0  9992
2 56749  97.5245 272.4171 0006820 163.7504 196.3955 15.28103235100820
OTTER PUP               
1 56933U 23084B   25079.90110718  .00048957  00000+0  11920-2 0  9990
2 56933  97.5554 209.8373 0004935  96.5461 263.6347 15.40768849 98502
GEISAT PRECURSOR        
1 56934U 23084C   25080.14721808  .00015258  00000+0  58908-3 0  9993
2 56934  97.5639 205.8136 0008259 141.8207 218.3617 15.26340402 98237
EIVE                    
1 56937U 23084F   25080.14285626  .00433593  00000+0  22845-2 0  9995
2 56937  97.5401 215.6591 0003467 247.4815 112.6085 15.79508871 98908
LAYAN-23                
1 56939U 23084H   25080.17846854  .00071132  00000+0  86348-3 0  9992
2 56939  97.5446 215.8804 0002561 136.9309 223.2148 15.60370730 98924
AFRL-XVI                
1 56942U 23084L   25079.85696937  .00055565  00000+0  96619-3 0  9998
2 56942  97.5563 213.7995 0003550 128.0855 232.0717 15.50619384 98732
BLACKJACK ACES-3        
1 56950U 23084U   25079.32058114  .00012625  00000+0  58256-3 0  9993
2 56950  97.5620 206.2676 0009839 125.1021 235.1137 15.20330367 98195
BLACKJACK ACES-4        
1 56952U 23084W   25079.90232819  .00074832  00000+0  15860-2 0  9996
2 56952  97.5606 210.6498 0006978 118.6618 241.5333 15.44792281 98532
BLACKJACK ACES-2        
1 56955U 23084Z   25079.89109429  .00022646  00000+0  10456-2 0  9999
2 56955  97.5625 206.9833 0009391 128.7781 231.4294 15.20180832 98296
BLACKJACK ACES-1        
1 56956U 23084AA  25079.79987502  .00016112  00000+0  71563-3 0  9993
2 56956  97.5600 206.6754 0008986 125.2661 234.9417 15.21590106 98270
ION SCV-011             
1 56957U 23084AB  25079.35271197  .00016620  00000+0  72585-3 0  9991
2 56957  98.0966 222.7448 0008772 165.1293 195.0201 15.22174438 96619
GHOST-3                 
1 56958U 23084AC  25079.81489078  .00024804  00000+0  82494-3 0  9995
2 56958  97.5641 207.0208 0009738 122.5459 237.6724 15.31114925 98281
TOMORROW-R2             
1 56962U 23084AG  25079.93410835  .00042923  00000+0  11268-2 0  9990
2 56962  97.5595 209.3409 0008857 114.1109 246.1063 15.38470546 98453
AFR-1                   
1 56964U 23084AJ  25080.18780539  .00011477  00000+0  49304-3 0  9995
2 56964  97.5672 204.7000 0012963 127.7272 232.5141 15.22771985 98158
DROID.001               
1 56965U 23084AK  25079.83354420  .00057336  00000+0  13749-2 0  9999
2 56965  97.5580 209.8009 0007003 112.4177 247.7812 15.41177729 98482
SPEI SATELLES           
1 56991U 23084BT  25079.91005128  .00651778  00000+0  22102-2 0  9998
2 56991  97.5366 217.5302 0005505 286.9680  73.0988 15.88360021 99010
METEOR-M2 3             
1 57166U 23091A   25080.17934124  .00000122  00000+0  72383-4 0  9997
2 57166  98.6717 137.8080 0004817  57.3140 302.8503 14.23985318 90040
STRATOSAT-TK 1 (RS52S)  
1 57167U 23091B   25080.23061444  .00057054  00000+0  18068-2 0  9995
2 57167  97.5643 141.4900 0010305 227.1001 132.9376 15.32490630 95674
UMKA 1 (RS40S)          
1 57172U 23091G   25080.21344467  .00013042  00000+0  72167-3 0  9998
2 57172  97.5691 136.0425 0013560 248.7821 111.1962 15.13906251 95311
2023-091H               
1 57173U 23091H   25080.19190722  .00018747  00000+0  94495-3 0  9994
2 57173  97.5681 136.8278 0011480 255.2757 104.7204 15.17149252 95361
